{
  "links" : {
    "next" : "https://api.nasa.gov/neo/rest/v1/feed?start_date=2011-10-23&end_date=2011-10-23&detailed=true&api_key=t0TVs3DtDT2H8Oy2Zy8m2eVrNsAVKAexjcZXUckd",
    "prev" : "https://api.nasa.gov/neo/rest/v1/feed?start_date=2011-10-21&end_date=2011-10-21&detailed=true&api_key=t0TVs3DtDT2H8Oy2Zy8m2eVrNsAVKAexjcZXUckd",
    "self" : "https://api.nasa.gov/neo/rest/v1/feed?start_date=2011-10-22&end_date=2011-10-22&detailed=true&api_key=t0TVs3DtDT2H8Oy2Zy8m2eVrNsAVKAexjcZXUckd"
  },
  "element_count" : 7,
  "near_earth_objects" : {
    "2011-10-22" : [ {
      "links" : {
        "self" : "https://api.nasa.gov/neo/rest/v1/neo/3585467?api_key=t0TVs3DtDT2H8Oy2Zy8m2eVrNsAVKAexjcZXUckd"
      },
      "neo_reference_id" : "3585467",
      "name" : "(2011 UC292)",
      "nasa_jpl_url" : "http://ssd.jpl.nasa.gov/sbdb.cgi?sstr=3585467",
      "absolute_magnitude_h" : 22.6,
      "estimated_diameter" : {
        "kilometers" : {
          "estimated_diameter_min" : 0.0802703167,
          "estimated_diameter_max" : 0.1794898848
        },
        "meters" : {
          "estimated_diameter_min" : 80.2703167283,
          "estimated_diameter_max" : 179.4898847799
        },
        "miles" : {
          "estimated_diameter_min" : 0.049877647,
          "estimated_diameter_max" : 0.1115298092
        },
        "feet" : {
          "estimated_diameter_min" : 263.3540659348,
          "estimated_diameter_max" : 588.8775935812
        }
      },
      "is_potentially_hazardous_asteroid" : false,
      "close_approach_data" : [ {
        "close_approach_date" : "2011-10-22",
        "epoch_date_close_approach" : 1319266800000,
        "relative_velocity" : {
          "kilometers_per_second" : "7.3014230125",
          "kilometers_per_hour" : "26285.1228448645",
          "miles_per_hour" : "16332.553136577"
        },
        "miss_distance" : {
          "astronomical" : "0.3263590642",
          "lunar" : "126.9536743164",
          "kilometers" : "48822620",
          "miles" : "30336970"
        },
        "orbiting_body" : "Earth"
      } ],
      "orbital_data" : {
        "orbit_id" : "5",
        "orbit_determination_date" : "2017-04-06 08:52:07",
        "orbit_uncertainty" : "7",
        "minimum_orbit_intersection" : ".0161531",
        "jupiter_tisserand_invariant" : "5.705",
        "epoch_osculation" : "2458000.5",
        "eccentricity" : ".2607394785260002",
        "semi_major_axis" : "1.078090713497173",
        "inclination" : "1.69537349244136",
        "ascending_node_longitude" : "187.1815098842731",
        "orbital_period" : "408.8663643729415",
        "perihelion_distance" : ".7969899030561963",
        "perihelion_argument" : "52.42118279224657",
        "aphelion_distance" : "1.359191523938149",
        "perihelion_time" : "2458154.949470921020",
        "mean_anomaly" : "224.0098223368387",
        "mean_motion" : ".8804832859071557",
        "equinox" : "J2000"
      }
    }, {
      "links" : {
        "self" : "https://api.nasa.gov/neo/rest/v1/neo/3753370?api_key=t0TVs3DtDT2H8Oy2Zy8m2eVrNsAVKAexjcZXUckd"
      },
      "neo_reference_id" : "3753370",
      "name" : "(2016 JT33)",
      "nasa_jpl_url" : "http://ssd.jpl.nasa.gov/sbdb.cgi?sstr=3753370",
      "absolute_magnitude_h" : 23.6,
      "estimated_diameter" : {
        "kilometers" : {
          "estimated_diameter_min" : 0.0506471459,
          "estimated_diameter_max" : 0.1132504611
        },
        "meters" : {
          "estimated_diameter_min" : 50.6471458835,
          "estimated_diameter_max" : 113.2504610618
        },
        "miles" : {
          "estimated_diameter_min" : 0.0314706677,
          "estimated_diameter_max" : 0.0703705522
        },
        "feet" : {
          "estimated_diameter_min" : 166.1651821003,
          "estimated_diameter_max" : 371.5566426699
        }
      },
      "is_potentially_hazardous_asteroid" : false,
      "close_approach_data" : [ {
        "close_approach_date" : "2011-10-22",
        "epoch_date_close_approach" : 1319266800000,
        "relative_velocity" : {
          "kilometers_per_second" : "21.5361524722",
          "kilometers_per_hour" : "77530.1488999963",
          "miles_per_hour" : "48174.2194651116"
        },
        "miss_distance" : {
          "astronomical" : "0.4470490629",
          "lunar" : "173.9020843506",
          "kilometers" : "66877588",
          "miles" : "41555804"
        },
        "orbiting_body" : "Earth"
      } ],
      "orbital_data" : {
        "orbit_id" : "16",
        "orbit_determination_date" : "2017-04-06 08:25:53",
        "orbit_uncertainty" : "7",
        "minimum_orbit_intersection" : ".073353",
        "jupiter_tisserand_invariant" : "4.724",
        "epoch_osculation" : "2458000.5",
        "eccentricity" : ".3280183018064855",
        "semi_major_axis" : "1.381803336194363",
        "inclination" : "10.17863052753389",
        "ascending_node_longitude" : "206.9269983893515",
        "orbital_period" : "593.2910299383648",
        "perihelion_distance" : ".9285465524253521",
        "perihelion_argument" : "104.2774014280279",
        "aphelion_distance" : "1.835060119963374",
        "perihelion_time" : "2458186.927115728089",
        "mean_anomaly" : "246.878853251693",
        "mean_motion" : ".6067848354919495",
        "equinox" : "J2000"
      }
    }, {
      "links" : {
        "self" : "https://api.nasa.gov/neo/rest/v1/neo/3579078?api_key=t0TVs3DtDT2H8Oy2Zy8m2eVrNsAVKAexjcZXUckd"
      },
      "neo_reference_id" : "3579078",
      "name" : "(2011 SM68)",
      "nasa_jpl_url" : "http://ssd.jpl.nasa.gov/sbdb.cgi?sstr=3579078",
      "absolute_magnitude_h" : 19.6,
      "estimated_diameter" : {
        "kilometers" : {
          "estimated_diameter_min" : 0.3195618867,
          "estimated_diameter_max" : 0.7145621017
        },
        "meters" : {
          "estimated_diameter_min" : 319.5618867213,
          "estimated_diameter_max" : 714.5621017269
        },
        "miles" : {
          "estimated_diameter_min" : 0.1985664891,
          "estimated_diameter_max" : 0.4440081677
        },
        "feet" : {
          "estimated_diameter_min" : 1048.4314204307,
          "estimated_diameter_max" : 2344.3639258298
        }
      },
      "is_potentially_hazardous_asteroid" : true,
      "close_approach_data" : [ {
        "close_approach_date" : "2011-10-22",
        "epoch_date_close_approach" : 1319266800000,
        "relative_velocity" : {
          "kilometers_per_second" : "20.4591199831",
          "kilometers_per_hour" : "73652.8319390412",
          "miles_per_hour" : "45765.0054901226"
        },
        "miss_distance" : {
          "astronomical" : "0.0933968563",
          "lunar" : "36.3313789368",
          "kilometers" : "13971971",
          "miles" : "8681780"
        },
        "orbiting_body" : "Earth"
      } ],
      "orbital_data" : {
        "orbit_id" : "31",
        "orbit_determination_date" : "2017-04-06 08:52:42",
        "orbit_uncertainty" : "0",
        "minimum_orbit_intersection" : ".00015193",
        "jupiter_tisserand_invariant" : "4.459",
        "epoch_osculation" : "2458000.5",
        "eccentricity" : ".6641653420026916",
        "semi_major_axis" : "1.395779400894746",
        "inclination" : "19.22999998478269",
        "ascending_node_longitude" : "24.15429799535678",
        "orbital_period" : "602.3148958753487",
        "perihelion_distance" : ".4687510977391751",
        "perihelion_argument" : "109.0891454398095",
        "aphelion_distance" : "2.322807704050318",
        "perihelion_time" : "2457715.626434510963",
        "mean_anomaly" : "170.2672211468556",
        "mean_motion" : ".5976940010371308",
        "equinox" : "J2000"
      }
    } ]
  }
}